[{"OBJECT_NAME":"ICEYE-X43","OBJECT_ID":"2024-149BZ","EPOCH":"2026-03-09T22:37:06.906720","MEAN_MOTION":14.99337202,"ECCENTRICITY":0.00024583,"INCLINATION":97.6823,"RA_OF_ASC_NODE":147.2527,"ARG_OF_PERICENTER":59.9226,"MEAN_ANOMALY":300.2241,"EPHEMERIS_TYPE":0,"CLASSIFICATION_TYPE":"U","NORAD_CAT_ID":60539,"ELEMENT_SET_NO":999,"REV_AT_EPOCH":8524,"BSTAR":0.00036668005,"MEAN_MOTION_DOT":4.424e-5,"MEAN_MOTION_DDOT":0},{"OBJECT_NAME":"STARLINK-36227","OBJECT_ID":"2025-298W","EPOCH":"2026-03-09T22:24:17.887968","MEAN_MOTION":14.99130266,"ECCENTRICITY":0.00025619,"INCLINATION":70.0021,"RA_OF_ASC_NODE":13.8485,"ARG_OF_PERICENTER":273.927,"MEAN_ANOMALY":86.1597,"EPHEMERIS_TYPE":0,"CLASSIFICATION_TYPE":"U","NORAD_CAT_ID":67095,"ELEMENT_SET_NO":999,"REV_AT_EPOCH":1325,"BSTAR":-1.7246e-5,"MEAN_MOTION_DOT":-3.04e-6,"MEAN_MOTION_DDOT":0}]
